[{"OBJECT_NAME":"STARLINK-1560","OBJECT_ID":"2020-055K","EPOCH":"2026-03-10T00:00:02.999808","MEAN_MOTION":15.20380122,"ECCENTRICITY":0.00016209,"INCLINATION":53.1145,"RA_OF_ASC_NODE":124.8762,"ARG_OF_PERICENTER":110.2667,"MEAN_ANOMALY":94.4846,"EPHEMERIS_TYPE":0,"CLASSIFICATION_TYPE":"U","NORAD_CAT_ID":46036,"ELEMENT_SET_NO":999,"REV_AT_EPOCH":575,"BSTAR":0.060862486,"MEAN_MOTION_DOT":0.01468388,"MEAN_MOTION_DDOT":0},{"OBJECT_NAME":"OBJECT A","OBJECT_ID":"2023-085A","EPOCH":"2026-03-09T21:42:39.504096","MEAN_MOTION":15.28003151,"ECCENTRICITY":0.00073195,"INCLINATION":97.4858,"RA_OF_ASC_NODE":178.2033,"ARG_OF_PERICENTER":32.2499,"MEAN_ANOMALY":327.9186,"EPHEMERIS_TYPE":0,"CLASSIFICATION_TYPE":"U","NORAD_CAT_ID":57004,"ELEMENT_SET_NO":999,"REV_AT_EPOCH":15139,"BSTAR":0.00063583858,"MEAN_MOTION_DOT":0.0001733,"MEAN_MOTION_DDOT":0}]
